{
  "links" : {
    "next" : "https://api.nasa.gov/neo/rest/v1/feed?start_date=2011-12-23&end_date=2011-12-23&detailed=true&api_key=t0TVs3DtDT2H8Oy2Zy8m2eVrNsAVKAexjcZXUckd",
    "prev" : "https://api.nasa.gov/neo/rest/v1/feed?start_date=2011-12-21&end_date=2011-12-21&detailed=true&api_key=t0TVs3DtDT2H8Oy2Zy8m2eVrNsAVKAexjcZXUckd",
    "self" : "https://api.nasa.gov/neo/rest/v1/feed?start_date=2011-12-22&end_date=2011-12-22&detailed=true&api_key=t0TVs3DtDT2H8Oy2Zy8m2eVrNsAVKAexjcZXUckd"
  },
  "element_count" : 5,
  "near_earth_objects" : {
    "2011-12-22" : [ {
      "links" : {
        "self" : "https://api.nasa.gov/neo/rest/v1/neo/3092220?api_key=t0TVs3DtDT2H8Oy2Zy8m2eVrNsAVKAexjcZXUckd"
      },
      "neo_reference_id" : "3092220",
      "name" : "(1999 GR6)",
      "nasa_jpl_url" : "http://ssd.jpl.nasa.gov/sbdb.cgi?sstr=3092220",
      "absolute_magnitude_h" : 20.0,
      "estimated_diameter" : {
        "kilometers" : {
          "estimated_diameter_min" : 0.2658,
          "estimated_diameter_max" : 0.5943468684
        },
        "meters" : {
          "estimated_diameter_min" : 265.8,
          "estimated_diameter_max" : 594.3468684194
        },
        "miles" : {
          "estimated_diameter_min" : 0.1651604118,
          "estimated_diameter_max" : 0.369309908
        },
        "feet" : {
          "estimated_diameter_min" : 872.047272,
          "estimated_diameter_max" : 1949.9569797852
        }
      },
      "is_potentially_hazardous_asteroid" : false,
      "close_approach_data" : [ {
        "close_approach_date" : "2011-12-22",
        "epoch_date_close_approach" : 1324540800000,
        "relative_velocity" : {
          "kilometers_per_second" : "31.5532491005",
          "kilometers_per_hour" : "113591.6967618681",
          "miles_per_hour" : "70581.4629129507"
        },
        "miss_distance" : {
          "astronomical" : "0.4923080322",
          "lunar" : "191.5078125",
          "kilometers" : "73648232",
          "miles" : "45762888"
        },
        "orbiting_body" : "Earth"
      } ],
      "orbital_data" : {
        "orbit_id" : "20",
        "orbit_determination_date" : "2017-04-06 09:17:29",
        "orbit_uncertainty" : "0",
        "minimum_orbit_intersection" : ".172297",
        "jupiter_tisserand_invariant" : "4.451",
        "epoch_osculation" : "2458000.5",
        "eccentricity" : ".7611119344262838",
        "semi_major_axis" : "1.342598685649502",
        "inclination" : "29.17114366347807",
        "ascending_node_longitude" : "180.8670964610377",
        "orbital_period" : "568.2216192649554",
        "perihelion_distance" : ".3207308028566236",
        "perihelion_argument" : "146.5873455953996",
        "aphelion_distance" : "2.364466568442381",
        "perihelion_time" : "2458155.610250849890",
        "mean_anomaly" : "261.7290289338273",
        "mean_motion" : ".6335556194882054",
        "equinox" : "J2000"
      }
    }, {
      "links" : {
        "self" : "https://api.nasa.gov/neo/rest/v1/neo/3554640?api_key=t0TVs3DtDT2H8Oy2Zy8m2eVrNsAVKAexjcZXUckd"
      },
      "neo_reference_id" : "3554640",
      "name" : "(2010 YR)",
      "nasa_jpl_url" : "http://ssd.jpl.nasa.gov/sbdb.cgi?sstr=3554640",
      "absolute_magnitude_h" : 23.9,
      "estimated_diameter" : {
        "kilometers" : {
          "estimated_diameter_min" : 0.04411182,
          "estimated_diameter_max" : 0.0986370281
        },
        "meters" : {
          "estimated_diameter_min" : 44.1118199997,
          "estimated_diameter_max" : 98.6370281305
        },
        "miles" : {
          "estimated_diameter_min" : 0.0274098057,
          "estimated_diameter_max" : 0.0612901888
        },
        "feet" : {
          "estimated_diameter_min" : 144.7238235278,
          "estimated_diameter_max" : 323.6123073718
        }
      },
      "is_potentially_hazardous_asteroid" : false,
      "close_approach_data" : [ {
        "close_approach_date" : "2011-12-22",
        "epoch_date_close_approach" : 1324540800000,
        "relative_velocity" : {
          "kilometers_per_second" : "16.374601147",
          "kilometers_per_hour" : "58948.5641293332",
          "miles_per_hour" : "36628.3453058071"
        },
        "miss_distance" : {
          "astronomical" : "0.2544911907",
          "lunar" : "98.9970703125",
          "kilometers" : "38071340",
          "miles" : "23656434"
        },
        "orbiting_body" : "Earth"
      } ],
      "orbital_data" : {
        "orbit_id" : "9",
        "orbit_determination_date" : "2017-04-06 08:55:07",
        "orbit_uncertainty" : "7",
        "minimum_orbit_intersection" : ".0157175",
        "jupiter_tisserand_invariant" : "6.175",
        "epoch_osculation" : "2458000.5",
        "eccentricity" : ".1996699181057757",
        "semi_major_axis" : ".9694692376721895",
        "inclination" : "17.15710442960508",
        "ascending_node_longitude" : "275.4891055546624",
        "orbital_period" : "348.6578729635174",
        "perihelion_distance" : ".7758953943801146",
        "perihelion_argument" : "290.6261257926255",
        "aphelion_distance" : "1.163043080964264",
        "perihelion_time" : "2458085.440737656696",
        "mean_anomaly" : "272.2960703669234",
        "mean_motion" : "1.032530821518748",
        "equinox" : "J2000"
      }
    }, {
      "links" : {
        "self" : "https://api.nasa.gov/neo/rest/v1/neo/3591407?api_key=t0TVs3DtDT2H8Oy2Zy8m2eVrNsAVKAexjcZXUckd"
      },
      "neo_reference_id" : "3591407",
      "name" : "(2011 XA3)",
      "nasa_jpl_url" : "http://ssd.jpl.nasa.gov/sbdb.cgi?sstr=3591407",
      "absolute_magnitude_h" : 20.4,
      "estimated_diameter" : {
        "kilometers" : {
          "estimated_diameter_min" : 0.2210828104,
          "estimated_diameter_max" : 0.4943561926
        },
        "meters" : {
          "estimated_diameter_min" : 221.0828103591,
          "estimated_diameter_max" : 494.3561926196
        },
        "miles" : {
          "estimated_diameter_min" : 0.137374447,
          "estimated_diameter_max" : 0.3071786018
        },
        "feet" : {
          "estimated_diameter_min" : 725.3373275385,
          "estimated_diameter_max" : 1621.9035709942
        }
      },
      "is_potentially_hazardous_asteroid" : true,
      "close_approach_data" : [ {
        "close_approach_date" : "2011-12-22",
        "epoch_date_close_approach" : 1324540800000,
        "relative_velocity" : {
          "kilometers_per_second" : "36.6075709107",
          "kilometers_per_hour" : "131787.2552785402",
          "miles_per_hour" : "81887.4753701573"
        },
        "miss_distance" : {
          "astronomical" : "0.0400295444",
          "lunar" : "15.5714931488",
          "kilometers" : "5988334.5",
          "miles" : "3720978.75"
        },
        "orbiting_body" : "Earth"
      } ],
      "orbital_data" : {
        "orbit_id" : "15",
        "orbit_determination_date" : "2017-04-06 08:51:45",
        "orbit_uncertainty" : "2",
        "minimum_orbit_intersection" : ".0341614",
        "jupiter_tisserand_invariant" : "3.902",
        "epoch_osculation" : "2458000.5",
        "eccentricity" : ".92603184498215",
        "semi_major_axis" : "1.466589934425301",
        "inclination" : "28.00959874943241",
        "ascending_node_longitude" : "273.4757162528258",
        "orbital_period" : "648.7262579593245",
        "perihelion_distance" : ".1084809516171892",
        "perihelion_argument" : "323.89009545524",
        "aphelion_distance" : "2.824698917233413",
        "perihelion_time" : "2457900.186591782059",
        "mean_anomaly" : "55.66728109951609",
        "mean_motion" : ".5549336034777432",
        "equinox" : "J2000"
      }
    } ]
  }
}